LEMUR-2-EMMACULATE
1 55037U 23001AE  24002.75812294  .00049582  00000-0  13035-2 0  9994
2 55037  97.4543  68.6284 0009784  22.0823 338.0841 15.38382169 55590
